#aV2021 11 27  0  0  0.00000000     288 DD+AD WGS84 FIT  NGA
## 2185 518400.00000000   300.00000000 59545 0.0000000000000
+   32     1  2  3  4  5  6  7  8  9 10 11 12 13 14 15 16 17
+         18 19 20 21 22 23 24 25 26 27 28 29 30 31 32  0  0
+          0  0  0  0  0  0  0  0  0  0  0  0  0  0  0  0  0
+          0  0  0  0  0  0  0  0  0  0  0  0  0  0  0  0  0
+          0  0  0  0  0  0  0  0  0  0  0  0  0  0  0  0  0
++         2  2  2  2  2  2  2  2  2  2  2  2  2  2  2  2  2
++         2  2  2  2  2  2  2  2  2  2  2  2  2  2  2  0  0
++         0  0  0  0  0  0  0  0  0  0  0  0  0  0  0  0  0
++         0  0  0  0  0  0  0  0  0  0  0  0  0  0  0  0  0
++         0  0  0  0  0  0  0  0  0  0  0  0  0  0  0  0  0
%c cc cc ccc ccc cccc cccc cccc cccc ccccc ccccc ccccc ccccc
%c cc cc ccc ccc cccc cccc cccc cccc ccccc ccccc ccccc ccccc
%f  0.0000000  0.000000000  0.00000000000  0.000000000000000
%f  0.0000000  0.000000000  0.00000000000  0.000000000000000
%i    0    0    0    0      0      0      0      0         0
%i    0    0    0    0      0      0      0      0         0
/*      NGA, ST. LOUIS,MO.                                  
/*   EPHEMERIS COMPUTED FROM 2 DAYS OF DATA                 
/*   EPOCHA v7 SMOOTHER                                     
/*   G2139 IERS2010 SATIGS SATAPC                           
*  2021 11 27 13 40  0.00000000
P  1 -13641.455163  22456.374956  -2558.308871    499.372000                    
V  1  -3531.656687   1110.660706  32322.660925     -0.103556                    
P  2  18342.850130  -9501.580469 -16088.767182   -643.646997                    
V  2  -9124.506152  19705.037883 -21090.256295     -0.014589                    
P  3 -11515.031668  12966.031637 -20194.108276    -24.624762                    
V  3 -25259.921420  -2906.082064  12701.093771     -0.106447                    
P  4  -3815.435740  20282.921408 -16676.082279   -200.776661                    
V  4 -10249.591426 -18658.459840 -20420.721267      0.010518                    
P  5  23960.186923  -6022.692822   9785.872942    -62.483855                    
V  5  12522.260408   2952.310974 -28214.969535     -0.012810                    
P  6  12895.570174   7035.146195 -22062.562838    128.202454                    
V  6 -15841.281138  23212.082834  -1794.392742      0.095271                    
P  7  -1070.556182  21357.431121  15804.375297    283.703482                    
V  7 -13096.643449  14799.940109 -21881.149717      0.049877                    
P  8 -11488.390554  10337.277230  21552.968625    -45.837172                    
V  8 -12874.012582 -24221.440440   5072.830463     -0.015132                    
P  9   6375.727880  24642.721668  -7606.868891   -361.308195                    
V  9  -6875.886320  -7259.342943 -29597.286857      0.004564                    
P 10 -18659.306242 -11729.970868  15157.949539   -255.587221                    
V 10  18948.506531   -208.808839  23071.880533     -0.086680                    
P 11  19429.309585  -5504.624538 -17251.719874     17.094928                    
V 11 -11995.249491  18400.192331 -19401.551552     -0.023707                    
P 12  14012.457741 -11488.109225 -19626.466370   -132.454517                    
V 12  23962.782702   4681.413766  14688.842800     -0.055714                    
P 13  15047.057532  -1937.562988  21658.267448    220.889761                    
V 13   8426.829581  26526.407678  -3306.582401      0.057242                    
P 14  17919.921433  12735.252956  14943.572776    -45.661164                    
V 14 -19090.628543    -69.759580  22891.593652     -0.065884                    
P 15  10461.069299 -12273.808758  20662.432508   -103.374667                    
V 15  15516.474401  22521.881724   5746.318918      0.028133                    
P 16 -25689.297879    806.004796   7332.842503   -431.179590                    
V 16  -9064.292837  -3553.032699 -29868.793555     -0.063113                    
P 17  12972.136941  22444.490801  -5274.626813    539.613834                    
V 17    684.408433   7555.850187  31262.841574      0.053653                    
P 18   1129.055230 -20861.301561  16335.513132    288.982403                    
V 18  13477.029623 -15900.553187 -21327.248555     -0.061640                    
P 19  15810.380673  16531.513546 -13905.222240     84.754787                    
V 19   4284.142687  16641.386952  24966.350309      0.049929                    
P 20  26365.968347  -1232.281819  -1094.151731    517.915489                    
V 20  -1097.035933   3772.568608 -31433.958479     -0.001952                    
P 21 -17098.905327  18551.120608   7954.882275    152.210199                    
V 21   2035.649398  -9611.678865  29887.469387      0.010610                    
P 22 -18965.391428  11235.089890 -14494.822983   -454.853685                    
V 22 -18924.051370  -2211.574538  22986.516058      0.090377                    
P 23  -6998.823305 -14792.732880  20917.399512     28.184417                    
V 23  26573.321132    540.323010   9179.998638     -0.043145                    
P 24  14613.746233 -21742.941180   2407.485488    270.882225                    
V 24   1743.636197   4980.914831  31231.232570      0.031341                    
P 25   1432.079723 -15315.887388 -21918.736104    247.083377                    
V 25  27122.444621   2075.713423    599.041482      0.058461                    
P 26 -25415.332322  -5294.043203  -6379.601950    159.482214                    
V 26   8046.724026  -2866.854319 -29692.636909      0.037297                    
P 27 -16293.700015  -1202.005587  20836.000066   -224.263358                    
V 27 -11091.318730 -24354.867575  -9621.971410     -0.045716                    
P 28  22622.453495  10407.406338   9457.012315    454.523118                    
V 28 -11530.948055    389.997542  29007.765702     -0.076038                    
P 29  -1411.041865 -24025.648643 -11201.486668   -446.332126                    
V 29   6921.901530  12486.587855 -27814.351647     -0.051988                    
P 30   7879.235715  14942.790250  20513.155102   -494.815524                    
V 30 -16045.808964  20541.890671  -9066.675100     -0.030833                    
P 31 -15140.602616  -4889.210745 -21436.424453   -152.246240                    
V 31  15452.263199 -22035.089639  -5452.821442     -0.018932                    
P 32 -16257.733203 -19178.656029  -8731.659966    -27.390896                    
V 32  -2629.571741 -11184.053086  28894.217912     -0.050383                    
EOF
